NORAD_CAT_ID,OBJECT_NAME,OBJECT_TYPE,EPOCH,MEAN_MOTION,ECCENTRICITY,INCLINATION,RA_OF_ASC_NODE,ARG_OF_PERICENTER,MEAN_ANOMALY,BSTAR,MEAN_MOTION_DOT,MEAN_MOTION_DDOT,TLE_LINE0,TLE_LINE1,TLE_LINE2,SEMIMAJOR_AXIS,PERIOD,APOGEE,PERIGEE,DECAYED
53433.0,STARLINK-4549,PAYLOAD,2022-10-20 14:00:01,15.50040053,0.0001082,53.2149,255.7728,72.9863,58.3375,-0.0040808,-0.00226719,0.0,0 STARLINK-4549,1 53433U 22097AX  22293.58334491 -.00226719  00000-0 -40808-2 0  9994,2 53433  53.2149 255.7728 0001082  72.9863  58.3375 15.50040053  1304,6794.746,92.901,417.346,415.876,0.0
53433.0,STARLINK-4549,PAYLOAD,2022-10-20 22:00:00,15.49996355,0.0001337,53.2163,254.1761,97.4023,94.9,-0.015974,-0.00832679,0.0,0 STARLINK-4549,1 53433U 22097AX  22293.91667824 -.00832679  00000-0 -15974-1 0  9993,2 53433  53.2163 254.1761 0001337  97.4023  94.9000 15.49996355  1307,6794.874,92.903,417.647,415.83,0.0
53433.0,STARLINK-4549,PAYLOAD,2022-10-21 06:00:00,15.49412651,0.0001277,53.2176,252.5843,82.4068,170.5883,-0.022407,-0.01128089,0.0,0 STARLINK-4549,1 53433U 22097AX  22294.25001157 -.01128089  00000-0 -22407-1 0  9995,2 53433  53.2176 252.5843 0001277  82.4068 170.5883 15.49412651 11752,6796.58,92.938,419.31300000000016,417.577,0.0
53433.0,STARLINK-4549,PAYLOAD,2022-10-21 14:00:01,15.48600606,0.0001119,53.2174,250.9919,75.4843,237.3592,-0.023137,-0.01148166,0.0,0 STARLINK-4549,1 53433U 22097AX  22294.58334491 -.01148166  00000-0 -23137-1 0  9990,2 53433  53.2174 250.9919 0001119  75.4843 237.3592 15.48600606  1301,6798.956,92.987,421.582,420.06,0.0
53433.0,STARLINK-4549,PAYLOAD,2022-10-21 22:00:00,15.47796363,0.000109,53.2167,249.4032,78.0225,293.6853,-0.024052,-0.01159248,0.0,0 STARLINK-4549,1 53433U 22097AX  22294.91667824 -.01159248  00000-0 -24052-1 0  9996,2 53433  53.2167 249.4032 0001090  78.0225 293.6853 15.47796363  1303,6801.311,93.035,423.917,422.435,0.0
53433.0,STARLINK-4549,PAYLOAD,2022-10-22 14:00:01,15.46156765,0.0001258,53.2172,246.231,78.5933,47.9274,-0.025078,-0.0114307,0.0,0 STARLINK-4549,1 53433U 22097AX  22295.58334491 -.01143070  00000-0 -25078-1 0  9996,2 53433  53.2172 246.2310 0001258  78.5933  47.9274 15.46156765  1302,6806.118,93.134,428.839,427.127,0.0
53433.0,STARLINK-4549,PAYLOAD,2022-10-22 22:00:00,15.45355289,0.0001378,53.2166,244.6478,77.4504,105.0002,-0.026168,-0.0115874,0.0,0 STARLINK-4549,1 53433U 22097AX  22295.91667824 -.01158740  00000-0 -26168-1 0  9993,2 53433  53.2166 244.6478 0001378  77.4504 105.0002 15.45355289  1303,6808.471,93.182,431.275,429.398,0.0
53433.0,STARLINK-4549,PAYLOAD,2022-10-23 00:00:02,15.45139237,0.0001222,53.2171,244.2524,79.9357,206.4171,-0.02595,-0.01142057,0.0,0 STARLINK-4549,1 53433U 22097AX  22296.00002315 -.01142057  00000-0 -25950-1 0  9994,2 53433  53.2171 244.2524 0001222  79.9357 206.4171 15.45139237 12025,6809.106,93.195,431.80300000000005,430.139,0.0
53433.0,STARLINK-4549,PAYLOAD,2022-10-23 14:00:01,15.43716966,0.0001155,53.2174,241.487,91.7036,199.6925,-0.027329,-0.01145262,0.0,0 STARLINK-4549,1 53433U 22097AX  22296.58334491 -.01145262  00000-0 -27329-1 0  9993,2 53433  53.2174 241.4870 0001155  91.7036 199.6925 15.43716966  1309,6813.288000000001,93.281,435.94,434.366,0.0
53433.0,STARLINK-4549,PAYLOAD,2022-10-23 22:00:00,15.42918347,0.0001117,53.2167,239.9099,86.0172,258.3736,-0.028592,-0.01164307,0.0,0 STARLINK-4549,1 53433U 22097AX  22296.91667824 -.01164307  00000-0 -28592-1 0  9993,2 53433  53.2167 239.9099 0001117  86.0172 258.3736 15.42918347 12167,6815.638000000001,93.33,438.265,436.742,0.0
53433.0,STARLINK-4549,PAYLOAD,2022-10-24 14:00:01,15.41272637,0.0001152,53.2173,236.7609,79.5365,7.936,-0.02953,-0.01139906,0.0,0 STARLINK-4549,1 53433U 22097AX  22297.58334491 -.01139906  00000-0 -29530-1 0  9998,2 53433  53.2173 236.7609 0001152  79.5365   7.9360 15.41272637  1305,6820.489000000001,93.429,443.14,441.569,0.0
53433.0,STARLINK-4549,PAYLOAD,2022-10-24 22:00:00,15.40475463,0.0001331999999999,53.2169,235.1895,69.1257,68.4075,-0.030961,-0.01161716,0.0,0 STARLINK-4549,1 53433U 22097AX  22297.91667824 -.01161716  00000-0 -30961-1 0  9998,2 53433  53.2169 235.1895 0001332  69.1257  68.4075 15.40475463  1301,6822.842,93.478,445.616,443.798,0.0
53433.0,STARLINK-4549,PAYLOAD,2022-10-25 00:00:00,15.40255935,0.0001291,53.2172,234.7973,71.4405,168.4649,-0.030535,-0.01139443,0.0,0 STARLINK-4549,1 53433U 22097AX  22298.00001157 -.01139443  00000-0 -30535-1 0  9999,2 53433  53.2172 234.7973 0001291  71.4405 168.4649 15.40255935 12335,6823.49,93.491,446.236,444.474,0.0
53433.0,STARLINK-4549,PAYLOAD,2022-10-25 14:00:01,15.38831913,0.0001262,53.2175,232.0518,87.6079,147.1387,-0.032013,-0.01139556,0.0,0 STARLINK-4549,1 53433U 22097AX  22298.58334491 -.01139556  00000-0 -32013-1 0  9990,2 53433  53.2175 232.0518 0001262  87.6079 147.1387 15.38831913  1309,6827.699000000001,93.577,450.426,448.703,0.0
53433.0,STARLINK-4549,PAYLOAD,2022-10-25 22:00:01,15.38031654,0.0001272,53.2171,230.4865,74.4209,207.5185,-0.033435,-0.01157569,0.0,0 STARLINK-4549,1 53433U 22097AX  22298.91668981 -.01157569  00000-0 -33435-1 0  9994,2 53433  53.2171 230.4865 0001272  74.4209 207.5185 15.38031654  1303,6830.066999999999,93.626,452.801,451.064,0.0
53433.0,STARLINK-4549,PAYLOAD,2022-10-26 14:00:01,15.36390545,0.0001064,53.2175,227.3602,89.6645,283.5559,-0.0346589999999999,-0.01139101,0.0,0 STARLINK-4549,1 53433U 22097AX  22299.58334491 -.01139101  00000-0 -34659-1 0  9995,2 53433  53.2175 227.3602 0001064  89.6645 283.5559 15.36390545  1306,6834.93,93.726,457.523,456.068,0.0
53433.0,STARLINK-4549,PAYLOAD,2022-10-26 22:00:00,15.35578446,0.0001145,53.2177,225.8008,81.11399999999998,336.3075,-0.035657,-0.01141332,0.0,0 STARLINK-4549,1 53433U 22097AX  22299.91667824 -.01141332  00000-0 -35657-1 0  9999,2 53433  53.2177 225.8008 0001145  81.1140 336.3075 15.35578446 12633,6837.34,93.776,459.98800000000006,458.422,0.0
53433.0,STARLINK-4549,PAYLOAD,2022-10-27 14:00:01,15.33947938,0.0001274999999999,53.2175,222.6861,80.5113,62.4465,-0.037383,-0.01136108,0.0,0 STARLINK-4549,1 53433U 22097AX  22300.58335648 -.01136108  00000-0 -37383-1 0  9994,2 53433  53.2175 222.6861 0001275  80.5113  62.4465 15.33947938  1306,6842.184,93.875,464.922,463.177,0.0
53433.0,STARLINK-4549,PAYLOAD,2022-10-27 22:00:00,15.33135159,0.0001357,53.2177,221.1326,82.4631,101.6986,-0.038417,-0.0113759,0.0,0 STARLINK-4549,1 53433U 22097AX  22300.91667824 -.01137590  00000-0 -38417-1 0  9990,2 53433  53.2177 221.1326 0001357  82.4631 101.6986 15.33135159  1303,6844.602,93.925,467.396,465.538,0.0
53433.0,STARLINK-4549,PAYLOAD,2022-10-28 02:00:01,15.32730431,0.0001200999999999,53.2175,220.3571,70.1371,314.3547,-0.039048,-0.01141151,0.0,0 STARLINK-4549,1 53433U 22097AX  22301.08335648 -.01141151  00000-0 -39048-1 0  9994,2 53433  53.2175 220.3571 0001201  70.1371 314.3547 15.32730431 12814,6845.807,93.95,468.494,466.85,0.0
53433.0,STARLINK-4549,PAYLOAD,2022-10-28 14:00:01,15.31505286,0.0001248,53.2174,218.0295,92.4332,171.3975,-0.040292,-0.01133586,0.0,0 STARLINK-4549,1 53433U 22097AX  22301.58335648 -.01133586  00000-0 -40292-1 0  9995,2 53433  53.2174 218.0295 0001248  92.4332 171.3975 15.31505286  1300,6849.456999999999,94.025,472.177,470.468,0.0
53433.0,STARLINK-4549,PAYLOAD,2022-10-28 22:00:01,15.3070279,0.0001269,53.2169,216.4819,97.6103,204.5495,-0.041947,-0.01149322,0.0,0 STARLINK-4549,1 53433U 22097AX  22301.91668981 -.01149322  00000-0 -41947-1 0  9994,2 53433  53.2169 216.4819 0001269  97.6103 204.5495 15.30702790  1308,6851.851,94.074,474.586,472.847,0.0
53433.0,STARLINK-4549,PAYLOAD,2022-10-29 12:00:00,15.2927139,0.0001262999999999,53.2175,213.7763,97.1715,179.6621,-0.043447,-0.01139472,0.0,0 STARLINK-4549,1 53433U 22097AX  22302.50001157 -.01139472  00000-0 -43447-1 0  9998,2 53433  53.2175 213.7763 0001263  97.1715 179.6621 15.29271390  1309,6856.126,94.162,478.857,477.125,0.0
53433.0,STARLINK-4549,PAYLOAD,2022-10-29 22:00:01,15.28266842,0.0001169,53.2168,211.8484,89.2428,322.0525,-0.045561,-0.01156695,0.0,0 STARLINK-4549,1 53433U 22097AX  22302.91668981 -.01156695  00000-0 -45561-1 0  9992,2 53433  53.2168 211.8484 0001169  89.2428 322.0525 15.28266842  1300,6859.13,94.224,481.797,480.193,0.0
53433.0,STARLINK-4549,PAYLOAD,2022-10-30 00:00:00,15.28047576,0.0001356,53.2171,211.4635,84.6135,65.32300000000001,-0.0449139999999999,-0.01134738,0.0,0 STARLINK-4549,1 53433U 22097AX  22303.00001157 -.01134738  00000-0 -44914-1 0  9994,2 53433  53.2171 211.4635 0001356  84.6135  65.3230 15.28047576 13102,6859.786,94.238,482.582,480.721,0.0
53433.0,STARLINK-4549,PAYLOAD,2022-10-30 14:00:01,15.26623605,0.0001247,53.2174,208.7678,89.9277,29.1813,-0.046892,-0.01134178,0.0,0 STARLINK-4549,1 53433U 22097AX  22303.58334491 -.01134178  00000-0 -46892-1 0  9992,2 53433  53.2174 208.7678 0001247  89.9277  29.1813 15.26623605  1300,6864.051,94.326,486.772,485.06,0.0
53433.0,STARLINK-4549,PAYLOAD,2022-10-30 22:00:01,15.25818455,0.0001394,53.2167,207.2321,98.0657,53.5701,-0.048608,-0.0116152,0.0,0 STARLINK-4549,1 53433U 22097AX  22303.91668981 -.01161520  00000-0 -48608-1 0  9991,2 53433  53.2167 207.2321 0001394  98.0657  53.5701 15.25818455  1302,6866.465999999999,94.376,489.288,487.374,0.0
53433.0,STARLINK-4549,PAYLOAD,2022-10-31 14:00:01,15.24182323,0.000136,53.2172,204.1627,94.7225,118.8568,-0.050461,-0.01148757,0.0,0 STARLINK-4549,1 53433U 22097AX  22304.58334491 -.01148757  00000-0 -50461-1 0  9998,2 53433  53.2172 204.1627 0001360  94.7225 118.8568 15.24182323  1303,6871.379,94.477,494.17800000000005,492.309,0.0
53433.0,STARLINK-4549,PAYLOAD,2022-10-31 22:00:01,15.23377754,0.0001440999999999,53.2168,202.6329,102.4186,140.7533,-0.052309,-0.01161439,0.0,0 STARLINK-4549,1 53433U 22097AX  22304.91668981 -.01161439  00000-0 -52309-1 0  9994,2 53433  53.2168 202.6329 0001441 102.4186 140.7533 15.23377754  1302,6873.7980000000025,94.527,496.654,494.673,0.0
